STRIX-4                 
1 60352U 24137A   26068.65404516  .00020530  00000+0  71820-3 0  9996
2 60352  43.0134 129.8162 0016840   5.2738 354.8289 15.29026223 88766
STARLINK-35661          
1 66387U 25257H   26068.73164387  .00029275  00000+0  99653-3 0  9991
2 66387  53.1605 216.5656 0000982  88.2084 271.9029 15.30203999 19744
